{
  "type": "FeatureCollection",
  "features": [
    {
      "type": "Feature",
      "properties": {
        "norad_id": 66814,
        "name": "STARLINK-35984",
        "group": "last-30-days",
        "lat": 11.604025281864843,
        "lon": -171.26907557334286,
        "alt_km": 413.4597706521454,
        "timestamp": "2025-12-25T09:48:51.005604+00:00",
        "meta_object_name": "STARLINK-35984",
        "meta_object_id": "2025-278Z",
        "meta_epoch": "2025-12-25T04:00:01.998720",
        "meta_mean_motion": 15.50606822,
        "meta_eccentricity": 0.0001597,
        "meta_inclination": 43.0003,
        "meta_ra_of_asc_node": 177.418,
        "meta_arg_of_pericenter": 273.0022,
        "meta_mean_anomaly": 190.4245,
        "meta_ephemeris_type": 0,
        "meta_classification_type": "U",
        "meta_norad_cat_id": 66814,
        "meta_element_set_no": 999,
        "meta_rev_at_epoch": 504,
        "meta_bstar": -0.0015086,
        "meta_mean_motion_dot": -0.00087946,
        "meta_mean_motion_ddot": 0,
        "tle_line1": "1 66814U 25278Z   25359.16668980 -.00087946  00000+0 -15086-2 0  9994",
        "tle_line2": "2 66814  43.0003 177.4180 0001597 273.0022 190.4245 15.50606822  5042"
      },
      "geometry": {
        "type": "Point",
        "coordinates": [
          -171.26907557334286,
          11.604025281864843
        ]
      }
    },
    {
      "type": "Feature",
      "properties": {
        "norad_id": 66815,
        "name": "STARLINK-35985",
        "group": "last-30-days",
        "lat": 10.324437849473506,
        "lon": -172.72111583221925,
        "alt_km": 413.6682874386961,
        "timestamp": "2025-12-25T09:48:51.005614+00:00",
        "meta_object_name": "STARLINK-35985",
        "meta_object_id": "2025-278AA",
        "meta_epoch": "2025-12-25T04:00:01.998720",
        "meta_mean_motion": 15.50607451,
        "meta_eccentricity": 0.0001627,
        "meta_inclination": 43.0003,
        "meta_ra_of_asc_node": 177.4226,
        "meta_arg_of_pericenter": 270.4814,
        "meta_mean_anomaly": 191.027,
        "meta_ephemeris_type": 0,
        "meta_classification_type": "U",
        "meta_norad_cat_id": 66815,
        "meta_element_set_no": 999,
        "meta_rev_at_epoch": 504,
        "meta_bstar": -0.0015481,
        "meta_mean_motion_dot": -0.00090215,
        "meta_mean_motion_ddot": 0,
        "tle_line1": "1 66815U 25278AA  25359.16668980 -.00090215  00000+0 -15481-2 0  9997",
        "tle_line2": "2 66815  43.0003 177.4226 0001627 270.4814 191.0270 15.50607451  5042"
      },
      "geometry": {
        "type": "Point",
        "coordinates": [
          -172.72111583221925,
          10.324437849473506
        ]
      }
    },
    {
      "type": "Feature",
      "properties": {
        "norad_id": 66816,
        "name": "STARLINK-36098",
        "group": "last-30-days",
        "lat": 5.150882890082207,
        "lon": -178.42366165829745,
        "alt_km": 414.2309830560898,
        "timestamp": "2025-12-25T09:48:51.005626+00:00",
        "meta_object_name": "STARLINK-36098",
        "meta_object_id": "2025-278AB",
        "meta_epoch": "2025-12-25T04:00:01.998720",
        "meta_mean_motion": 15.50603462,
        "meta_eccentricity": 0.0001686,
        "meta_inclination": 43.0003,
        "meta_ra_of_asc_node": 177.4424,
        "meta_arg_of_pericenter": 272.2747,
        "meta_mean_anomaly": 181.5625,
        "meta_ephemeris_type": 0,
        "meta_classification_type": "U",
        "meta_norad_cat_id": 66816,
        "meta_element_set_no": 999,
        "meta_rev_at_epoch": 479,
        "meta_bstar": -0.001354,
        "meta_mean_motion_dot": -0.00079047,
        "meta_mean_motion_ddot": 0,
        "tle_line1": "1 66816U 25278AB  25359.16668980 -.00079047  00000+0 -13540-2 0  9992",
        "tle_line2": "2 66816  43.0003 177.4424 0001686 272.2747 181.5625 15.50603462  4790"
      },
      "geometry": {
        "type": "Point",
        "coordinates": [
          -178.42366165829745,
          5.150882890082207
        ]
      }
    },
    {
      "type": "Feature",
      "properties": {
        "norad_id": 66817,
        "name": "STARLINK-35995",
        "group": "last-30-days",
        "lat": 7.748396716765935,
        "lon": -175.58864373894488,
        "alt_km": 413.96163509115286,
        "timestamp": "2025-12-25T09:48:51.005638+00:00",
        "meta_object_name": "STARLINK-35995",
        "meta_object_id": "2025-278AC",
        "meta_epoch": "2025-12-25T04:00:01.998720",
        "meta_mean_motion": 15.50604594,
        "meta_eccentricity": 0.0001669,
        "meta_inclination": 43.0003,
        "meta_ra_of_asc_node": 177.4325,
        "meta_arg_of_pericenter": 271.2249,
        "meta_mean_anomaly": 186.4503,
        "meta_ephemeris_type": 0,
        "meta_classification_type": "U",
        "meta_norad_cat_id": 66817,
        "meta_element_set_no": 999,
        "meta_rev_at_epoch": 495,
        "meta_bstar": -0.0014422,
        "meta_mean_motion_dot": -0.00084126,
        "meta_mean_motion_ddot": 0,
        "tle_line1": "1 66817U 25278AC  25359.16668980 -.00084126  00000+0 -14422-2 0  9997",
        "tle_line2": "2 66817  43.0003 177.4325 0001669 271.2249 186.4503 15.50604594  4952"
      },
      "geometry": {
        "type": "Point",
        "coordinates": [
          -175.58864373894488,
          7.748396716765935
        ]
      }
    },
    {
      "type": "Feature",
      "properties": {
        "norad_id": 66818,
        "name": "STARLINK-35994",
        "group": "last-30-days",
        "lat": 5.597124778434654,
        "lon": -177.93919753602896,
        "alt_km": 419.34182390175465,
        "timestamp": "2025-12-25T09:48:51.005648+00:00",
        "meta_object_name": "STARLINK-35994",
        "meta_object_id": "2025-278AD",
        "meta_epoch": "2025-12-25T04:00:01.998720",
        "meta_mean_motion": 15.49928698,
        "meta_eccentricity": 0.00017,
        "meta_inclination": 43,
        "meta_ra_of_asc_node": 177.4386,
        "meta_arg_of_pericenter": 278.3459,
        "meta_mean_anomaly": 177.2111,
        "meta_ephemeris_type": 0,
        "meta_classification_type": "U",
        "meta_norad_cat_id": 66818,
        "meta_element_set_no": 999,
        "meta_rev_at_epoch": 495,
        "meta_bstar": -0.041184,
        "meta_mean_motion_dot": -0.02096672,
        "meta_mean_motion_ddot": 0,
        "tle_line1": "1 66818U 25278AD  25359.16668980 -.02096672  00000+0 -41184-1 0  9993",
        "tle_line2": "2 66818  43.0000 177.4386 0001700 278.3459 177.2111 15.49928698  4959"
      },
      "geometry": {
        "type": "Point",
        "coordinates": [
          -177.93919753602896,
          5.597124778434654
        ]
      }
    },
    {
      "type": "Feature",
      "properties": {
        "norad_id": 66819,
        "name": "STARLINK-35989",
        "group": "last-30-days",
        "lat": 9.037931700062678,
        "lon": -174.16131153572783,
        "alt_km": 413.89591951565126,
        "timestamp": "2025-12-25T09:48:51.005658+00:00",
        "meta_object_name": "STARLINK-35989",
        "meta_object_id": "2025-278AE",
        "meta_epoch": "2025-12-25T04:00:01.998720",
        "meta_mean_motion": 15.50602669,
        "meta_eccentricity": 0.0001645,
        "meta_inclination": 43.0003,
        "meta_ra_of_asc_node": 177.4277,
        "meta_arg_of_pericenter": 266.4579,
        "meta_mean_anomaly": 193.1333,
        "meta_ephemeris_type": 0,
        "meta_classification_type": "U",
        "meta_norad_cat_id": 66819,
        "meta_element_set_no": 999,
        "meta_rev_at_epoch": 495,
        "meta_bstar": -0.0013322,
        "meta_mean_motion_dot": -0.00077792,
        "meta_mean_motion_ddot": 0,
        "tle_line1": "1 66819U 25278AE  25359.16668980 -.00077792  00000+0 -13322-2 0  9998",
        "tle_line2": "2 66819  43.0003 177.4277 0001645 266.4579 193.1333 15.50602669  4953"
      },
      "geometry": {
        "type": "Point",
        "coordinates": [
          -174.16131153572783,
          9.037931700062678
        ]
      }
    },
    {
      "type": "Feature",
      "properties": {
        "norad_id": 66820,
        "name": "KOMPSAT-7",
        "group": "last-30-days",
        "lat": -27.475602980409594,
        "lon": -50.93779371813704,
        "alt_km": 573.5286251138514,
        "timestamp": "2025-12-25T09:48:51.005668+00:00",
        "meta_object_name": "KOMPSAT-7",
        "meta_object_id": "2025-279A",
        "meta_epoch": "2025-12-24T22:44:08.567232",
        "meta_mean_motion": 15.00672035,
        "meta_eccentricity": 0.00112396,
        "meta_inclination": 97.6459,
        "meta_ra_of_asc_node": 304.6024,
        "meta_arg_of_pericenter": 222.2186,
        "meta_mean_anomaly": 137.8173,
        "meta_ephemeris_type": 0,
        "meta_classification_type": "U",
        "meta_norad_cat_id": 66820,
        "meta_element_set_no": 999,
        "meta_rev_at_epoch": 348,
        "meta_bstar": 0.00024503699,
        "meta_mean_motion_dot": 3.045e-05,
        "meta_mean_motion_ddot": 0,
        "tle_line1": "1 66820U 25279A   25358.94732138  .00003045  00000+0  24504-3 0  9996",
        "tle_line2": "2 66820  97.6459 304.6024 0011239 222.2186 137.8173 15.00672035  3486"
      },
      "geometry": {
        "type": "Point",
        "coordinates": [
          -50.93779371813704,
          -27.475602980409594
        ]
      }
    }
  ]
}